<?xml version="1.0" encoding="UTF-8"?>
<ndm xmlns:xsi="http://www.w3.org/2001/XMLSchema-instance" xsi:noNamespaceSchemaLocation="https://sanaregistry.org/r/ndmxml_unqualified/ndmxml-2.0.0-master-2.0.xsd">
<omm id="CCSDS_OMM_VERS" version="2.0">
<header><CREATION_DATE/><ORIGINATOR/></header><body><segment><metadata><OBJECT_NAME>ORBCOMM FM33 [-]</OBJECT_NAME><OBJECT_ID>1999-065D</OBJECT_ID><CENTER_NAME>EARTH</CENTER_NAME><REF_FRAME>TEME</REF_FRAME><TIME_SYSTEM>UTC</TIME_SYSTEM><MEAN_ELEMENT_THEORY>SGP4</MEAN_ELEMENT_THEORY></metadata><data><meanElements><EPOCH>2023-10-21T11:20:22.514784</EPOCH><MEAN_MOTION>14.36879058</MEAN_MOTION><ECCENTRICITY>.0010659</ECCENTRICITY><INCLINATION>45.0306</INCLINATION><RA_OF_ASC_NODE>346.2577</RA_OF_ASC_NODE><ARG_OF_PERICENTER>261.0862</ARG_OF_PERICENTER><MEAN_ANOMALY>114.4927</MEAN_ANOMALY></meanElements><tleParameters><EPHEMERIS_TYPE>0</EPHEMERIS_TYPE><CLASSIFICATION_TYPE>U</CLASSIFICATION_TYPE><NORAD_CAT_ID>25983</NORAD_CAT_ID><ELEMENT_SET_NO>999</ELEMENT_SET_NO><REV_AT_EPOCH>24900</REV_AT_EPOCH><BSTAR>.77315E-3</BSTAR><MEAN_MOTION_DOT>.2167E-4</MEAN_MOTION_DOT><MEAN_MOTION_DDOT>0</MEAN_MOTION_DDOT></tleParameters></data></segment></body></omm>
<omm id="CCSDS_OMM_VERS" version="2.0">
<header><CREATION_DATE/><ORIGINATOR/></header><body><segment><metadata><OBJECT_NAME>ORBCOMM FM36 [-]</OBJECT_NAME><OBJECT_ID>1999-065E</OBJECT_ID><CENTER_NAME>EARTH</CENTER_NAME><REF_FRAME>TEME</REF_FRAME><TIME_SYSTEM>UTC</TIME_SYSTEM><MEAN_ELEMENT_THEORY>SGP4</MEAN_ELEMENT_THEORY></metadata><data><meanElements><EPOCH>2023-10-21T11:42:04.774464</EPOCH><MEAN_MOTION>14.34745958</MEAN_MOTION><ECCENTRICITY>.0004321</ECCENTRICITY><INCLINATION>45.0396</INCLINATION><RA_OF_ASC_NODE>68.2031</RA_OF_ASC_NODE><ARG_OF_PERICENTER>157.8192</ARG_OF_PERICENTER><MEAN_ANOMALY>202.2843</MEAN_ANOMALY></meanElements><tleParameters><EPHEMERIS_TYPE>0</EPHEMERIS_TYPE><CLASSIFICATION_TYPE>U</CLASSIFICATION_TYPE><NORAD_CAT_ID>25984</NORAD_CAT_ID><ELEMENT_SET_NO>999</ELEMENT_SET_NO><REV_AT_EPOCH>24748</REV_AT_EPOCH><BSTAR>.84778E-3</BSTAR><MEAN_MOTION_DOT>.2283E-4</MEAN_MOTION_DOT><MEAN_MOTION_DDOT>0</MEAN_MOTION_DDOT></tleParameters></data></segment></body></omm>
<omm id="CCSDS_OMM_VERS" version="2.0">
<header><CREATION_DATE/><ORIGINATOR/></header><body><segment><metadata><OBJECT_NAME>ORBCOMM FM35 [+]</OBJECT_NAME><OBJECT_ID>1999-065F</OBJECT_ID><CENTER_NAME>EARTH</CENTER_NAME><REF_FRAME>TEME</REF_FRAME><TIME_SYSTEM>UTC</TIME_SYSTEM><MEAN_ELEMENT_THEORY>SGP4</MEAN_ELEMENT_THEORY></metadata><data><meanElements><EPOCH>2023-10-21T11:30:24.930144</EPOCH><MEAN_MOTION>14.34441577</MEAN_MOTION><ECCENTRICITY>.0003676</ECCENTRICITY><INCLINATION>45.0403</INCLINATION><RA_OF_ASC_NODE>70.3408</RA_OF_ASC_NODE><ARG_OF_PERICENTER>239.9821</ARG_OF_PERICENTER><MEAN_ANOMALY>120.0662</MEAN_ANOMALY></meanElements><tleParameters><EPHEMERIS_TYPE>0</EPHEMERIS_TYPE><CLASSIFICATION_TYPE>U</CLASSIFICATION_TYPE><NORAD_CAT_ID>25985</NORAD_CAT_ID><ELEMENT_SET_NO>999</ELEMENT_SET_NO><REV_AT_EPOCH>24807</REV_AT_EPOCH><BSTAR>.64541E-3</BSTAR><MEAN_MOTION_DOT>.1693E-4</MEAN_MOTION_DOT><MEAN_MOTION_DDOT>0</MEAN_MOTION_DDOT></tleParameters></data></segment></body></omm>
<omm id="CCSDS_OMM_VERS" version="2.0">
<header><CREATION_DATE/><ORIGINATOR/></header><body><segment><metadata><OBJECT_NAME>ORBCOMM FM34 [-]</OBJECT_NAME><OBJECT_ID>1999-065G</OBJECT_ID><CENTER_NAME>EARTH</CENTER_NAME><REF_FRAME>TEME</REF_FRAME><TIME_SYSTEM>UTC</TIME_SYSTEM><MEAN_ELEMENT_THEORY>SGP4</MEAN_ELEMENT_THEORY></metadata><data><meanElements><EPOCH>2023-10-21T12:19:22.059264</EPOCH><MEAN_MOTION>14.34390222</MEAN_MOTION><ECCENTRICITY>.0004705</ECCENTRICITY><INCLINATION>45.0390</INCLINATION><RA_OF_ASC_NODE>70.6569</RA_OF_ASC_NODE><ARG_OF_PERICENTER>195.4188</ARG_OF_PERICENTER><MEAN_ANOMALY>164.6516</MEAN_ANOMALY></meanElements><tleParameters><EPHEMERIS_TYPE>0</EPHEMERIS_TYPE><CLASSIFICATION_TYPE>U</CLASSIFICATION_TYPE><NORAD_CAT_ID>25986</NORAD_CAT_ID><ELEMENT_SET_NO>999</ELEMENT_SET_NO><REV_AT_EPOCH>24800</REV_AT_EPOCH><BSTAR>.6773E-3</BSTAR><MEAN_MOTION_DOT>.1782E-4</MEAN_MOTION_DOT><MEAN_MOTION_DDOT>0</MEAN_MOTION_DDOT></tleParameters></data></segment></body></omm>
<omm id="CCSDS_OMM_VERS" version="2.0">
<header><CREATION_DATE/><ORIGINATOR/></header><body><segment><metadata><OBJECT_NAME>ORBCOMM FM38 [-]</OBJECT_NAME><OBJECT_ID>2008-031A</OBJECT_ID><CENTER_NAME>EARTH</CENTER_NAME><REF_FRAME>TEME</REF_FRAME><TIME_SYSTEM>UTC</TIME_SYSTEM><MEAN_ELEMENT_THEORY>SGP4</MEAN_ELEMENT_THEORY></metadata><data><meanElements><EPOCH>2023-10-21T08:08:29.337216</EPOCH><MEAN_MOTION>14.76238714</MEAN_MOTION><ECCENTRICITY>.0006068</ECCENTRICITY><INCLINATION>48.4419</INCLINATION><RA_OF_ASC_NODE>305.4554</RA_OF_ASC_NODE><ARG_OF_PERICENTER>325.5547</ARG_OF_PERICENTER><MEAN_ANOMALY>34.4973</MEAN_ANOMALY></meanElements><tleParameters><EPHEMERIS_TYPE>0</EPHEMERIS_TYPE><CLASSIFICATION_TYPE>U</CLASSIFICATION_TYPE><NORAD_CAT_ID>33060</NORAD_CAT_ID><ELEMENT_SET_NO>999</ELEMENT_SET_NO><REV_AT_EPOCH>82524</REV_AT_EPOCH><BSTAR>.52981E-3</BSTAR><MEAN_MOTION_DOT>.3503E-4</MEAN_MOTION_DOT><MEAN_MOTION_DDOT>0</MEAN_MOTION_DDOT></tleParameters></data></segment></body></omm>
<omm id="CCSDS_OMM_VERS" version="2.0">
<header><CREATION_DATE/><ORIGINATOR/></header><body><segment><metadata><OBJECT_NAME>ORBCOMM FM41 [-]</OBJECT_NAME><OBJECT_ID>2008-031B</OBJECT_ID><CENTER_NAME>EARTH</CENTER_NAME><REF_FRAME>TEME</REF_FRAME><TIME_SYSTEM>UTC</TIME_SYSTEM><MEAN_ELEMENT_THEORY>SGP4</MEAN_ELEMENT_THEORY></metadata><data><meanElements><EPOCH>2023-10-21T08:27:15.136128</EPOCH><MEAN_MOTION>14.76003566</MEAN_MOTION><ECCENTRICITY>.0005297</ECCENTRICITY><INCLINATION>48.4454</INCLINATION><RA_OF_ASC_NODE>311.5615</RA_OF_ASC_NODE><ARG_OF_PERICENTER>312.5983</ARG_OF_PERICENTER><MEAN_ANOMALY>60.8702</MEAN_ANOMALY></meanElements><tleParameters><EPHEMERIS_TYPE>0</EPHEMERIS_TYPE><CLASSIFICATION_TYPE>U</CLASSIFICATION_TYPE><NORAD_CAT_ID>33061</NORAD_CAT_ID><ELEMENT_SET_NO>999</ELEMENT_SET_NO><REV_AT_EPOCH>82475</REV_AT_EPOCH><BSTAR>.49218E-3</BSTAR><MEAN_MOTION_DOT>.3221E-4</MEAN_MOTION_DOT><MEAN_MOTION_DDOT>0</MEAN_MOTION_DDOT></tleParameters></data></segment></body></omm>
<omm id="CCSDS_OMM_VERS" version="2.0">
<header><CREATION_DATE/><ORIGINATOR/></header><body><segment><metadata><OBJECT_NAME>ORBCOMM FM29 [-]</OBJECT_NAME><OBJECT_ID>2008-031C</OBJECT_ID><CENTER_NAME>EARTH</CENTER_NAME><REF_FRAME>TEME</REF_FRAME><TIME_SYSTEM>UTC</TIME_SYSTEM><MEAN_ELEMENT_THEORY>SGP4</MEAN_ELEMENT_THEORY></metadata><data><meanElements><EPOCH>2023-10-21T11:44:43.328832</EPOCH><MEAN_MOTION>14.75885243</MEAN_MOTION><ECCENTRICITY>.0007225</ECCENTRICITY><INCLINATION>48.4409</INCLINATION><RA_OF_ASC_NODE>318.8964</RA_OF_ASC_NODE><ARG_OF_PERICENTER>312.1941</ARG_OF_PERICENTER><MEAN_ANOMALY>201.0293</MEAN_ANOMALY></meanElements><tleParameters><EPHEMERIS_TYPE>0</EPHEMERIS_TYPE><CLASSIFICATION_TYPE>U</CLASSIFICATION_TYPE><NORAD_CAT_ID>33062</NORAD_CAT_ID><ELEMENT_SET_NO>999</ELEMENT_SET_NO><REV_AT_EPOCH>82468</REV_AT_EPOCH><BSTAR>.42394E-3</BSTAR><MEAN_MOTION_DOT>.2738E-4</MEAN_MOTION_DOT><MEAN_MOTION_DDOT>0</MEAN_MOTION_DDOT></tleParameters></data></segment></body></omm>
<omm id="CCSDS_OMM_VERS" version="2.0">
<header><CREATION_DATE/><ORIGINATOR/></header><body><segment><metadata><OBJECT_NAME>ORBCOMM FM39 [-]</OBJECT_NAME><OBJECT_ID>2008-031D</OBJECT_ID><CENTER_NAME>EARTH</CENTER_NAME><REF_FRAME>TEME</REF_FRAME><TIME_SYSTEM>UTC</TIME_SYSTEM><MEAN_ELEMENT_THEORY>SGP4</MEAN_ELEMENT_THEORY></metadata><data><meanElements><EPOCH>2023-10-21T10:28:02.222112</EPOCH><MEAN_MOTION>14.75040655</MEAN_MOTION><ECCENTRICITY>.0008197</ECCENTRICITY><INCLINATION>48.4424</INCLINATION><RA_OF_ASC_NODE>338.2647</RA_OF_ASC_NODE><ARG_OF_PERICENTER>289.9337</ARG_OF_PERICENTER><MEAN_ANOMALY>70.0693</MEAN_ANOMALY></meanElements><tleParameters><EPHEMERIS_TYPE>0</EPHEMERIS_TYPE><CLASSIFICATION_TYPE>U</CLASSIFICATION_TYPE><NORAD_CAT_ID>33063</NORAD_CAT_ID><ELEMENT_SET_NO>999</ELEMENT_SET_NO><REV_AT_EPOCH>82439</REV_AT_EPOCH><BSTAR>.47114E-3</BSTAR><MEAN_MOTION_DOT>.3003E-4</MEAN_MOTION_DOT><MEAN_MOTION_DDOT>0</MEAN_MOTION_DDOT></tleParameters></data></segment></body></omm>

</ndm>
