ORBCOMM FM33 [-]        
1 25983U 99065D   23294.47248281  .00002167  00000+0  77315-3 0  9993
2 25983  45.0306 346.2577 0010659 261.0862 114.4927 14.36879058249001
ORBCOMM FM36 [-]        
1 25984U 99065E   23294.48755526  .00002283  00000+0  84778-3 0  9990
2 25984  45.0396  68.2031 0004321 157.8192 202.2843 14.34745958247486
ORBCOMM FM35 [+]        
1 25985U 99065F   23294.47945521  .00001693  00000+0  64541-3 0  9996
2 25985  45.0403  70.3408 0003676 239.9821 120.0662 14.34441577248073
ORBCOMM FM34 [-]        
1 25986U 99065G   23294.51344976  .00001782  00000+0  67730-3 0  9991
2 25986  45.0390  70.6569 0004705 195.4188 164.6516 14.34390222248001
ORBCOMM FM38 [-]        
1 33060U 08031A   23294.33922844  .00003503  00000+0  52981-3 0  9997
2 33060  48.4419 305.4554 0006068 325.5547  34.4973 14.76238714825245
ORBCOMM FM41 [-]        
1 33061U 08031B   23294.35225852  .00003221  00000+0  49218-3 0  9991
2 33061  48.4454 311.5615 0005297 312.5983  60.8702 14.76003566824757
ORBCOMM FM29 [-]        
1 33062U 08031C   23294.48939038  .00002738  00000+0  42394-3 0  9994
2 33062  48.4409 318.8964 0007225 312.1941 201.0293 14.75885243824683
ORBCOMM FM39 [-]        
1 33063U 08031D   23294.43613683  .00003003  00000+0  47114-3 0  9996
2 33063  48.4424 338.2647 0008197 289.9337  70.0693 14.75040655824390
